KUIPER-00168            
1 65781U 25217V   26060.22436739  .00004734  00000+0  64943-3 0  9990
2 65781  51.9008  65.5329 0000895  76.0220 284.0841 14.79936491 23837
KUIPER-00169            
1 65782U 25217W   26060.21927294  .00004385  00000+0  60623-3 0  9994
2 65782  51.9006  70.5611 0000779  95.8329 264.2722 14.79762325 23769
KUIPER-00170            
1 65783U 25217X   26060.48333475 -.00013792  00000+0 -17828-2 0  9998
2 65783  51.8995  74.3755 0001009  50.4611 309.6441 14.79956725 23733
KUIPER-00172            
1 65785U 25217Z   26060.50003471 -.01123560  00000+0 -10471+0 0  9993
2 65785  51.8987  55.3957 0002066 309.7480 213.4423 14.97096271  5842
KUIPER-00173            
1 65786U 25217AA  26060.39309587  .00005511  00000+0  71146-3 0  9990
2 65786  51.9014  69.1499 0001553 125.6417 234.4691 14.82248531 23790
KUIPER-00174            
1 65787U 25217AB  26060.39280230  .00005179  00000+0  71564-3 0  9998
2 65787  51.9046  64.8094 0001462 154.8583 205.2451 14.79461972 23855
KUIPER-00176            
1 65788U 25217AC  26060.24186901  .00004734  00000+0  64912-3 0  9998
2 65788  51.8988  80.4551 0000807  61.5616 298.5427 14.79961177 23620
KUIPER-00101            
1 65947U 25228A   26060.32162390  .00005598  00000+0  76226-3 0  9992
2 65947  51.8982  37.5821 0000850 103.9139 256.1917 14.79954121 21996
KUIPER-00113            
1 65948U 25228B   26060.29325032  .00005934  00000+0  80672-3 0  9997
2 65948  51.8987  32.7241 0000837  92.4743 267.6315 14.79932084 22054
KUIPER-00117            
1 65949U 25228C   26060.32434644  .00005731  00000+0  78005-3 0  9994
2 65949  51.8982  35.0898 0000999  76.9763 283.1310 14.79940012 22027
KUIPER-00121            
1 65950U 25228D   26060.29587883 -.00001858  00000+0 -21483-3 0  9992
2 65950  51.8999  30.2090 0001296  92.8666 267.2445 14.79920209 22093
KUIPER-00122            
1 65951U 25228E   26060.35128681 -.00013670  00000+0 -17648-2 0  9999
2 65951  51.8995  39.9288 0001290 233.0946 126.9898 14.80003193 21963
KUIPER-00123            
1 65952U 25228F   26060.31909514  .00005804  00000+0  78997-3 0  9991
2 65952  51.8990  40.1089 0001014  86.5951 273.5128 14.79915324 21953
KUIPER-00124            
1 65953U 25228G   26060.12444327 -.00000538  00000+0 -41551-4 0  9995
2 65953  51.8995  33.4553 0001331  90.6062 269.5053 14.79954503 22035
KUIPER-00125            
1 65954U 25228H   26060.27562700  .00002214  00000+0  31959-3 0  9999
2 65954  51.9009  17.8092 0000913 108.0788 252.0274 14.79890685 22268
KUIPER-00126            
1 65955U 25228J   26060.35539689  .00005794  00000+0  78801-3 0  9992
2 65955  51.8999  37.4577 0001002  90.6678 269.4399 14.79952064 21995
KUIPER-00127            
1 65956U 25228K   26060.29368155  .00004143  00000+0  62188-3 0  9992
2 65956  51.9011  28.9469 0001469 166.1129 193.9872 14.76334741 22119
KUIPER-00128            
1 65957U 25228L   26060.32931310  .00005585  00000+0  76326-3 0  9996
2 65957  51.9011  30.0824 0000788  94.0138 266.0914 14.79810002 22099
KUIPER-00129            
1 65958U 25228M   26060.30135351  .00000482  00000+0  92244-4 0  9995
2 65958  51.9004  25.1952 0001064  79.8819 280.2264 14.79933148 22165
KUIPER-00130            
1 65959U 25228N   26060.33273215  .00005823  00000+0  79171-3 0  9998
2 65959  51.9030  27.5649 0001203  86.5885 273.5215 14.79956409 12421
KUIPER-00134            
1 65960U 25228P   26060.20659954  .00051058  00000+0  13346-2 0  9996
2 65960  51.8772   1.4640 0004740 296.0180  64.0319 15.38252323 22487
KUIPER-00135            
1 65961U 25228Q   26059.28570462  .00005064  00000+0  69293-3 0  9998
2 65961  51.9023  32.2537 0000955  63.4310 296.6750 14.79926142 21976
KUIPER-00136            
1 65962U 25228R   26060.26726924  .00005685  00000+0  77623-3 0  9990
2 65962  51.9004  25.3855 0001367  89.1909 270.9210 14.79820072 22151
KUIPER-00137            
1 65963U 25228S   26060.14222049  .00006080  00000+0  75902-3 0  9995
2 65963  51.9033  23.4733 0002015 145.0130 215.0966 14.83494519 22175
KUIPER-00138            
1 65964U 25228T   26060.10411476  .00004916  00000+0  67318-3 0  9994
2 65964  51.8994  21.0581 0000835  65.0718 295.0331 14.79943243 22203
KUIPER-00140            
1 65965U 25228U   26060.30398333  .00006193  00000+0  84101-3 0  9991
2 65965  51.8999  22.7558 0000895  85.5760 274.5305 14.79913772 22196
KUIPER-00141            
1 65966U 25228V   26060.17442914  .00005627  00000+0  76467-3 0  9999
2 65966  51.9037  18.3388 0000562  90.4717 269.6310 14.80031213 22241
KUIPER-00146            
1 65967U 25228W   26060.50003471 -.00030594  00000+0 -43465-2 0  9992
2 65967  51.9026  19.0270 0001102  94.9594 233.1386 14.76452429  5668
KUIPER-00149            
1 65968U 25228X   26060.24458564  .00005144  00000+0  70365-3 0  9992
2 65968  51.9021  15.4456 0001583  59.0840 301.0277 14.79908314 22293
KUIPER-00154            
1 65969U 25228Y   26060.50003471 -.00030982  00000+0 -40518-2 0  9991
2 65969  51.9007  11.8213 0000725 118.3443 329.3953 14.79952500  5813
