OBJECT_NAME,OBJECT_ID,EPOCH,MEAN_MOTION,ECCENTRICITY,INCLINATION,RA_OF_ASC_NODE,ARG_OF_PERICENTER,MEAN_ANOMALY,EPHEMERIS_TYPE,CLASSIFICATION_TYPE,NORAD_CAT_ID,ELEMENT_SET_NO,REV_AT_EPOCH,BSTAR,MEAN_MOTION_DOT,MEAN_MOTION_DDOT
KUIPER-00168,2025-217V,2026-03-01T05:23:05.342496,14.79936491,.0000895,51.9008,65.5329,76.0220,284.0841,0,U,65781,999,2383,.64943E-3,.4734E-4,0
KUIPER-00169,2025-217W,2026-03-01T05:15:45.182016,14.79762325,.0000779,51.9006,70.5611,95.8329,264.2722,0,U,65782,999,2376,.60623E-3,.4385E-4,0
KUIPER-00170,2025-217X,2026-03-01T11:36:00.122400,14.79956725,.0001009,51.8995,74.3755,50.4611,309.6441,0,U,65783,999,2373,-.17828E-2,-.13792E-3,0
KUIPER-00172,2025-217Z,2026-03-01T12:00:02.998944,14.97096271,.0002066,51.8987,55.3957,309.7480,213.4423,0,U,65785,999,584,-.10471E+0,-.112356E-1,0
KUIPER-00173,2025-217AA,2026-03-01T09:26:03.483168,14.82248531,.0001553,51.9014,69.1499,125.6417,234.4691,0,U,65786,999,2379,.71146E-3,.5511E-4,0
KUIPER-00174,2025-217AB,2026-03-01T09:25:38.118720,14.79461972,.0001462,51.9046,64.8094,154.8583,205.2451,0,U,65787,999,2385,.71564E-3,.5179E-4,0
KUIPER-00176,2025-217AC,2026-03-01T05:48:17.482464,14.79961177,.0000807,51.8988,80.4551,61.5616,298.5427,0,U,65788,999,2362,.64912E-3,.4734E-4,0
KUIPER-00101,2025-228A,2026-03-01T07:43:08.304960,14.79954121,.000085,51.8982,37.5821,103.9139,256.1917,0,U,65947,999,2199,.76226E-3,.5598E-4,0
KUIPER-00113,2025-228B,2026-03-01T07:02:16.827648,14.79932084,.0000837,51.8987,32.7241,92.4743,267.6315,0,U,65948,999,2205,.80672E-3,.5934E-4,0
KUIPER-00117,2025-228C,2026-03-01T07:47:03.532416,14.79940012,.0000999,51.8982,35.0898,76.9763,283.1310,0,U,65949,999,2202,.78005E-3,.5731E-4,0
KUIPER-00121,2025-228D,2026-03-01T07:06:03.930912,14.79920209,.0001296,51.8999,30.2090,92.8666,267.2445,0,U,65950,999,2209,-.21483E-3,-.1858E-4,0
KUIPER-00122,2025-228E,2026-03-01T08:25:51.180384,14.80003193,.000129,51.8995,39.9288,233.0946,126.9898,0,U,65951,999,2196,-.17648E-2,-.1367E-3,0
KUIPER-00123,2025-228F,2026-03-01T07:39:29.820096,14.79915324,.0001014,51.8990,40.1089,86.5951,273.5128,0,U,65952,999,2195,.78997E-3,.5804E-4,0
KUIPER-00124,2025-228G,2026-03-01T02:59:11.898528,14.79954503,.00013311,51.8995,33.4553,90.6062,269.5053,0,U,65953,999,2203,-.41551339E-4,-.538E-5,0
KUIPER-00125,2025-228H,2026-03-01T06:36:54.172800,14.79890685,.0000913,51.9009,17.8092,108.0788,252.0274,0,U,65954,999,2226,.31959E-3,.2214E-4,0
KUIPER-00126,2025-228J,2026-03-01T08:31:46.291296,14.79952064,.0001002,51.8999,37.4577,90.6678,269.4399,0,U,65955,999,2199,.78801E-3,.5794E-4,0
KUIPER-00127,2025-228K,2026-03-01T07:02:54.085920,14.76334741,.0001469,51.9011,28.9469,166.1129,193.9872,0,U,65956,999,2211,.62188E-3,.4143E-4,0
KUIPER-00128,2025-228L,2026-03-01T07:54:12.651840,14.79810002,.0000788,51.9011,30.0824,94.0138,266.0914,0,U,65957,999,2209,.76326E-3,.5585E-4,0
KUIPER-00129,2025-228M,2026-03-01T07:13:56.943264,14.79933148,.0001064,51.9004,25.1952,79.8819,280.2264,0,U,65958,999,2216,.92244E-4,.482E-5,0
KUIPER-00130,2025-228N,2026-03-01T07:59:08.057760,14.79956409,.0001203,51.9030,27.5649,86.5885,273.5215,0,U,65959,999,1242,.79171E-3,.5823E-4,0
KUIPER-00134,2025-228P,2026-03-01T04:57:30.200256,15.38252323,.000474,51.8772,1.4640,296.0180,64.0319,0,U,65960,999,2248,.13346E-2,.51058E-3,0
KUIPER-00135,2025-228Q,2026-02-28T06:51:24.879168,14.79926142,.0000955,51.9023,32.2537,63.4310,296.6750,0,U,65961,999,2197,.69293E-3,.5064E-4,0
KUIPER-00136,2025-228R,2026-03-01T06:24:52.062336,14.79820072,.0001367,51.9004,25.3855,89.1909,270.9210,0,U,65962,999,2215,.77623E-3,.5685E-4,0
KUIPER-00137,2025-228S,2026-03-01T03:24:47.850336,14.83494519,.00020155,51.9033,23.4733,145.0130,215.0966,0,U,65963,999,2217,.75902351E-3,.608E-4,0
KUIPER-00138,2025-228T,2026-03-01T02:29:55.515264,14.79943243,.00008358,51.8994,21.0581,65.0718,295.0331,0,U,65964,999,2220,.67318011E-3,.4916E-4,0
KUIPER-00140,2025-228U,2026-03-01T07:17:44.159712,14.79913772,.0000895,51.8999,22.7558,85.5760,274.5305,0,U,65965,999,2219,.84101E-3,.6193E-4,0
KUIPER-00141,2025-228V,2026-03-01T04:11:10.677696,14.80031213,.00005622,51.9037,18.3388,90.4717,269.6310,0,U,65966,999,2224,.76466707E-3,.5627E-4,0
KUIPER-00146,2025-228W,2026-03-01T12:00:02.998944,14.76452429,.0001102,51.9026,19.0270,94.9594,233.1386,0,U,65967,999,566,-.43465E-2,-.30594E-3,0
KUIPER-00149,2025-228X,2026-03-01T05:52:12.199296,14.79908314,.0001583,51.9021,15.4456,59.0840,301.0277,0,U,65968,999,2229,.70365E-3,.5144E-4,0
KUIPER-00154,2025-228Y,2026-03-01T12:00:02.998944,14.79952500,.0000725,51.9007,11.8213,118.3443,329.3953,0,U,65969,999,581,-.40518E-2,-.30982E-3,0
